OBJECT_NAME,OBJECT_ID,EPOCH,MEAN_MOTION,ECCENTRICITY,INCLINATION,RA_OF_ASC_NODE,ARG_OF_PERICENTER,MEAN_ANOMALY,EPHEMERIS_TYPE,CLASSIFICATION_TYPE,NORAD_CAT_ID,ELEMENT_SET_NO,REV_AT_EPOCH,BSTAR,MEAN_MOTION_DOT,MEAN_MOTION_DDOT
FENGYUN 1C DEB,1999-025AMJ,2024-07-07T03:47:41.142048,13.81270170,.0188781,98.4547,260.0733,195.0966,197.3654,0,U,30603,999,87639,.16173E-2,.1927E-4,0
FENGYUN 1C DEB,1999-025AMK,2024-07-07T10:10:28.885152,14.21862724,.0215653,98.4705,239.7340,94.7117,280.4519,0,U,30604,999,90397,.5386E-3,.1461E-4,0
FENGYUN 1C DEB,1999-025AMM,2024-07-07T07:49:31.448352,14.50968994,.0231494,98.1190,208.7483,322.0202,48.5400,0,U,30606,999,91632,.79214E-3,.438E-4,0
FENGYUN 1C DEB,1999-025AMN,2024-07-07T10:14:09.123936,14.72267090,.0024809,98.9006,6.0880,156.6824,203.5512,0,U,30607,999,90424,.57956E-2,.36912E-3,0
FENGYUN 1C DEB,1999-025AMP,2024-07-07T18:38:23.845632,14.23746496,.0010538,98.7673,247.4085,255.4507,237.7500,0,U,30608,999,89985,.86586E-3,.1935E-4,0
FENGYUN 1C DEB,1999-025AMQ,2024-07-07T19:08:16.725984,14.03728727,.0132625,98.5608,126.7429,96.0504,265.5794,0,U,30609,999,88436,.26409E-2,.4454E-4,0
FENGYUN 1C DEB,1999-025AMT,2024-07-08T04:59:38.817888,14.75737150,.0083763,99.0774,88.8610,223.2314,288.9049,0,U,30612,999,92544,.13236E-2,.9534E-4,0
FENGYUN 1C DEB,1999-025AMU,2024-07-07T17:27:19.913184,14.66466599,.016413,98.3241,277.5260,65.8636,295.9633,0,U,30613,999,91656,.20971E-2,.14169E-3,0
FENGYUN 1C DEB,1999-025AMX,2024-07-06T14:43:57.386496,13.33868367,.03926,98.6411,319.9696,129.9612,233.6699,0,U,30616,999,84706,.23953E-2,.1802E-4,0
FENGYUN 1C DEB,1999-025ANA,2024-07-07T20:46:24.857472,14.38429464,.0222411,98.3473,221.0177,193.1546,166.3783,0,U,30619,999,91424,.34291E-3,.1344E-4,0
FENGYUN 1C DEB,1999-025ANC,2024-07-07T21:20:34.229184,13.97033267,.0153424,98.6593,152.9540,328.2221,86.1555,0,U,30621,999,88268,.28424E-2,.4341E-4,0
FENGYUN 1C DEB,1999-025AND,2024-07-07T12:23:26.256768,14.16605273,.0092646,101.0054,64.0437,341.2804,136.6296,0,U,30622,999,61347,.3059E-2,.6307E-4,0
FENGYUN 1C DEB,1999-025ANE,2024-07-07T03:43:11.987904,13.28584908,.0405966,98.8718,75.6259,319.5057,196.7848,0,U,30623,999,84261,.44957E-3,.285E-5,0
FENGYUN 1C DEB,1999-025ANF,2024-07-07T14:57:17.203392,14.37292056,.0030134,98.8977,236.5231,58.1525,302.2588,0,U,30624,999,89912,.37939E-2,.11343E-3,0
FENGYUN 1C DEB,1999-025ANG,2024-07-07T19:17:16.461600,14.22055047,.0073332,98.9280,124.0528,29.9024,330.6312,0,U,30625,999,89201,.44597E-2,.10106E-3,0
FENGYUN 1C DEB,1999-025ANK,2024-07-07T11:32:55.259232,14.49941013,.0033817,99.3750,32.7727,19.6490,340.5995,0,U,30628,999,90836,.22152E-2,.8586E-4,0
FENGYUN 1C DEB,1999-025ANL,2024-07-06T19:51:40.885920,14.41230525,.0005629,99.2716,226.3033,310.7740,103.6265,0,U,30629,999,90292,.22041E-2,.7075E-4,0
FENGYUN 1C DEB,1999-025ANM,2024-07-07T08:24:28.187136,14.18226573,.0027674,99.1247,337.9761,123.8560,266.3914,0,U,30630,999,89781,.11492E-2,.2326E-4,0
FENGYUN 1C DEB,1999-025ANN,2024-07-07T14:43:13.694016,14.49432557,.0040101,99.0424,72.4719,5.9124,354.2533,0,U,30631,999,90359,.41743E-2,.16123E-3,0
FENGYUN 1C DEB,1999-025ANP,2024-07-07T05:31:23.872224,14.38228958,.0020751,98.8063,289.6746,300.4628,121.3440,0,U,30632,999,90098,.2585E-2,.7836E-4,0
FENGYUN 1C DEB,1999-025ANQ,2024-07-08T04:10:14.612736,14.01487165,.01358,98.4686,86.3140,296.6386,219.2742,0,U,30633,999,88714,.12431E-2,.1995E-4,0
FENGYUN 1C DEB,1999-025ANR,2024-07-07T19:35:09.821760,14.01794830,.013706,99.2649,153.5208,105.0242,278.8730,0,U,30634,999,88391,.24124E-2,.3936E-4,0
FENGYUN 1C DEB,1999-025ANW,2024-07-07T17:20:55.559328,14.19700694,.0077781,99.0198,279.9608,353.5726,6.4445,0,U,30639,999,89316,.21295E-2,.4598E-4,0
FENGYUN 1C DEB,1999-025ANX,2024-07-07T09:54:36.528192,14.09671207,.0088049,99.0989,247.7786,132.7178,356.7866,0,U,30640,999,89057,.18766E-2,.3367E-4,0
FENGYUN 1C DEB,1999-025ANY,2024-07-07T14:24:09.402048,14.70374468,.015476,98.9685,63.2216,323.7661,94.4767,0,U,30641,999,92833,.59134E-3,.4236E-4,0
FENGYUN 1C DEB,1999-025APD,2024-07-08T00:53:22.956000,14.07571242,.0050725,98.6982,224.1935,71.9536,288.7151,0,U,30646,999,89271,.83211E-3,.1379E-4,0
FENGYUN 1C DEB,1999-025APE,2024-07-07T04:29:40.511616,14.39797822,.0039623,99.0014,81.5798,303.9047,208.0040,0,U,30647,999,90408,.17965E-2,.5643E-4,0
FENGYUN 1C DEB,1999-025APF,2024-07-07T11:07:10.517088,14.35313475,.0041302,98.6585,270.9212,248.9457,240.6887,0,U,30648,999,90322,.19938E-2,.5728E-4,0
FENGYUN 1C DEB,1999-025APG,2024-07-07T11:25:25.868640,14.21560806,.0055729,98.8210,275.6832,246.7296,246.3547,0,U,30649,999,89605,.19692E-2,.434E-4,0
FENGYUN 1C DEB,1999-025APH,2024-07-07T14:34:22.461888,14.09160715,.007539,99.2408,209.4663,211.8560,270.6836,0,U,30650,999,88916,.15697E-2,.2753E-4,0
FENGYUN 1C DEB,1999-025APJ,2024-07-08T01:05:52.915776,14.07482987,.0007321,98.8511,229.5093,300.6581,119.1670,0,U,30652,999,89340,.21268E-3,.315E-5,0
FENGYUN 1C DEB,1999-025APL,2024-07-07T05:22:26.277600,14.13108277,.0036794,99.2516,87.5875,128.5607,231.8870,0,U,30654,999,89274,.11528E-2,.2121E-4,0
FENGYUN 1C DEB,1999-025APM,2024-07-07T13:37:26.817600,14.56233996,.0018641,98.8028,195.9151,99.9724,17.7122,0,U,30655,999,90131,.49631E-2,.22017E-3,0
FENGYUN 1C DEB,1999-025APN,2024-07-07T07:54:35.000064,14.30022742,.0042056,99.0034,331.5095,185.0449,175.0314,0,U,30656,999,89588,.29726E-2,.7707E-4,0
FENGYUN 1C DEB,1999-025APP,2024-07-07T18:07:50.631168,14.27589879,.0021787,98.8510,270.4358,88.1075,33.9204,0,U,30657,999,89738,.21961E-2,.5376E-4,0
FENGYUN 1C DEB,1999-025APQ,2024-07-07T15:53:12.335712,13.83060920,.0191697,98.4714,266.7845,221.3284,137.3233,0,U,30658,999,87529,.23117E-2,.2874E-4,0
FENGYUN 1C DEB,1999-025APS,2024-07-08T04:15:56.452608,14.75282791,.0167112,98.1621,271.1780,224.8463,167.4199,0,U,30660,999,93043,.74654E-3,.6285E-4,0
FENGYUN 1C DEB,1999-025APT,2024-07-07T14:23:39.230304,14.20291499,.0146818,99.4304,322.3192,80.5019,281.2714,0,U,30661,999,90473,.19902E-3,.426E-5,0
FENGYUN 1C DEB,1999-025APU,2024-07-07T08:28:31.825632,14.16988741,.0034142,99.0862,226.5788,326.1664,167.7787,0,U,30662,999,89210,.1589E-2,.3165E-4,0
FENGYUN 1C DEB,1999-025APV,2024-07-07T21:05:52.078272,13.16013315,.0683168,99.2853,156.3336,316.8842,38.0652,0,U,30663,999,82772,.42666E-2,.5387E-4,0
FENGYUN 1C DEB,1999-025APX,2024-07-07T09:38:42.133056,14.06617922,.0072204,99.1728,143.8771,223.7786,260.7601,0,U,30665,999,88595,.15997E-2,.267E-4,0
FENGYUN 1C DEB,1999-025APY,2024-07-07T12:32:34.304928,14.01520892,.0060484,98.7760,185.0892,163.6137,319.4957,0,U,30666,999,88778,.54144E-3,.79E-5,0
FENGYUN 1C DEB,1999-025AQA,2024-07-07T10:45:53.879328,14.07149516,.0081787,99.1589,247.9085,270.1976,207.8952,0,U,30668,999,88680,.15719E-2,.2667E-4,0
FENGYUN 1C DEB,1999-025AQB,2024-07-07T19:59:33.678816,13.97759385,.0129623,98.6066,149.7129,199.0124,233.5983,0,U,30669,999,88143,.1726E-2,.258E-4,0
FENGYUN 1C DEB,1999-025AQC,2024-07-07T01:49:48.768096,14.15388221,.0040201,98.7860,237.1549,124.3196,301.8743,0,U,30670,999,89743,.11971E-3,.192E-5,0
FENGYUN 1C DEB,1999-025AQD,2024-07-07T09:09:29.254176,13.92171193,.0131472,99.2928,246.2020,13.8812,44.2302,0,U,30671,999,87903,.13677E-2,.1835E-4,0
FENGYUN 1C DEB,1999-025AQF,2024-07-07T09:39:27.635616,14.02934023,.0052865,98.9924,240.7769,157.6977,215.0854,0,U,30673,999,89192,.47676E-4,.31E-6,0
FENGYUN 1C DEB,1999-025AQG,2024-07-07T07:05:20.777568,14.40932443,.0053296,98.9700,299.6878,122.9780,237.6547,0,U,30674,999,89688,.41897E-2,.13655E-3,0
FENGYUN 1C DEB,1999-025AQH,2024-07-07T11:00:27.238176,14.20619894,.0057777,98.7835,263.4846,242.6494,246.3385,0,U,30675,999,89441,.17948E-2,.3885E-4,0
FENGYUN 1C DEB,1999-025AQJ,2024-07-07T15:34:19.472736,13.70124737,.0487501,98.3224,77.7707,23.0648,339.1602,0,U,30676,999,86816,.19052E-2,.3868E-4,0
FENGYUN 1C DEB,1999-025AQK,2024-07-07T03:41:06.790848,14.31306568,.0071554,98.3002,249.4964,331.3752,89.7469,0,U,30677,999,90469,.10185E-2,.2731E-4,0
FENGYUN 1C DEB,1999-025AQL,2024-07-07T19:15:44.841312,14.11749028,.008534,99.0736,132.2513,279.0976,109.1508,0,U,30678,999,88483,.26754E-2,.5001E-4,0
FENGYUN 1C DEB,1999-025AQM,2024-07-07T10:00:54.750240,13.78420365,.0173568,99.4377,238.5931,18.0678,355.7581,0,U,30679,999,87306,.6341E-3,.672E-5,0
FENGYUN 1C DEB,1999-025AQN,2024-07-07T09:47:03.316128,13.49635811,.0343347,99.5835,240.7477,42.7934,319.9392,0,U,30680,999,85175,.33751E-2,.3035E-4,0
FENGYUN 1C DEB,1999-025AQR,2024-07-07T12:44:07.549152,13.95978679,.0148055,99.4149,180.2377,208.0896,282.4664,0,U,30683,999,88237,.11115E-2,.1622E-4,0
FENGYUN 1C DEB,1999-025AQS,2024-07-08T01:34:46.053984,13.65075233,.0243,99.5663,232.6025,171.1824,189.3705,0,U,30684,999,86592,.18662E-2,.1806E-4,0
FENGYUN 1C DEB,1999-025AQU,2024-07-07T08:13:18.378912,14.60819634,.0174249,99.0016,323.0320,297.5221,88.9123,0,U,30686,999,91919,.61107E-3,.3634E-4,0
FENGYUN 1C DEB,1999-025AQW,2024-07-07T17:21:15.446880,14.25040306,.0018526,98.7337,256.9079,56.3680,66.0517,0,U,30688,999,89844,.18123E-2,.421E-4,0
FENGYUN 1C DEB,1999-025AQX,2024-07-07T12:32:24.140832,14.10107846,.0113927,98.6696,186.5625,149.4867,332.3682,0,U,30689,999,89511,.48275E-3,.865E-5,0
FENGYUN 1C DEB,1999-025AQY,2024-07-07T11:08:29.090976,13.98222821,.0112026,99.1343,113.4630,74.5288,347.9908,0,U,30690,999,88382,.2056E-2,.3048E-4,0
FENGYUN 1C DEB,1999-025AQZ,2024-07-07T02:00:08.758080,13.86914589,.014246,98.7834,226.0217,222.2789,193.9968,0,U,30691,999,87850,.11468E-2,.1411E-4,0
FENGYUN 1C DEB,1999-025ARB,2024-07-07T19:15:13.860864,14.12033032,.0028797,98.6451,185.7906,217.6791,142.2364,0,U,30693,999,89563,.3759E-3,.649E-5,0
FENGYUN 1C DEB,1999-025ARC,2024-07-08T04:56:27.805632,14.70107090,.017228,99.0258,86.8734,133.9697,227.5863,0,U,30694,999,92426,.6413E-3,.4783E-4,0
FENGYUN 1C DEB,1999-025ARE,2024-07-07T23:28:44.180832,14.38982875,.0096034,98.4454,239.8096,260.5434,221.3725,0,U,30696,999,90783,.86717E-3,.2778E-4,0
FENGYUN 1C DEB,1999-025ARF,2024-07-07T02:01:26.452416,14.08870509,.0091897,98.9430,242.7659,222.3556,167.6225,0,U,30697,999,88873,.17066E-2,.3022E-4,0
